     2.10           G: GLO NAV DATA                         RINEX VERSION / TYPE
sbf2rin-12.1.2                          12-APR-21 20:12     PGM / RUN BY / DATE 
    18                                                      LEAP SECONDS        
                                                            END OF HEADER       
03 21  4  6 20 15  0.0 3.375392407179E-05 9.094947017729E-13 7.350000000000E+04
    9.307401855469E+03-2.945012092590E+00 2.793967723846E-09 0.000000000000E+00
    9.984470703125E+03 3.567981719971E-02 0.000000000000E+00 5.000000000000E+00
    2.160710009766E+04 1.250128746033E+00-9.313225746155E-10 0.000000000000E+00
11 21  4  6 20 45  0.0 1.401640474796E-06-9.094947017729E-13 7.380000000000E+04
   -8.164235351563E+03 1.001152992249E+00 0.000000000000E+00 5.000000000000E+00
   -8.749551757813E+03-2.917133331299E+00-0.000000000000E+00 0.000000000000E+00
    2.253221044922E+04-7.710685729980E-01-1.862645149231E-09 0.000000000000E+00
20 21  4  6 20 45  0.0-4.679616540670E-05-0.000000000000E+00 7.380000000000E+04
    3.541198242188E+03 1.805830955505E+00 1.862645149231E-09 0.000000000000E+00
   -1.171938623047E+04 2.482277870178E+00 0.000000000000E+00 2.000000000000E+00
    2.237647851563E+04 1.019020080566E+00-9.313225746155E-10 0.000000000000E+00
10 21  4  6 20 45  0.0-6.775185465813E-05 0.000000000000E+00 7.380000000000E+04
    1.986610351563E+03 4.267024993896E-01 0.000000000000E+00 0.000000000000E+00
   -2.244692480469E+04-1.593708038330E+00 9.313225746155E-10-7.000000000000E+00
    1.201034130859E+04-3.039045333862E+00-0.000000000000E+00 0.000000000000E+00
21 21  4  6 20 45  0.0-1.998646184802E-04-2.728484105319E-12 7.380000000000E+04
   -1.117899560547E+04 6.679325103760E-01-9.313225746155E-10 0.000000000000E+00
   -2.077931640625E+04 1.172515869141E+00 0.000000000000E+00 4.000000000000E+00
    9.715221679688E+03 3.274387359619E+00-9.313225746155E-10 0.000000000000E+00
02 21  4  6 20 45  0.0 4.737684503198E-04 9.094947017729E-13 7.380000000000E+04
   -1.478542675781E+04-2.375830650330E+00-0.000000000000E+00 0.000000000000E+00
    1.084314013672E+04 4.882125854492E-01-9.313225746155E-10-4.000000000000E+00
    1.775066357422E+04-2.288305282593E+00-2.793967723846E-09 0.000000000000E+00
12 21  4  6 20 45  0.0 2.187201753259E-04 3.637978807092E-12 7.380000000000E+04
   -1.348155468750E+04 9.935951232910E-01-0.000000000000E+00 0.000000000000E+00
    1.009038574219E+04-2.426798820496E+00-9.313225746155E-10-1.000000000000E+00
    1.917148535156E+04 1.980154037476E+00-2.793967723846E-09 0.000000000000E+00
03 21  4  6 20 45  0.0 3.375764936209E-05 9.094947017729E-13 7.380000000000E+04
    3.824960449219E+03-3.095816612244E+00 1.862645149231E-09 0.000000000000E+00
    1.045952880859E+04 4.960927963257E-01-9.313225746155E-10 5.000000000000E+00
    2.299795068359E+04 2.852001190186E-01-1.862645149231E-09 0.000000000000E+00
19 21  4  6 20 45  0.0-1.387512311339E-04-9.094947017729E-13 7.380000000000E+04
    1.550017285156E+04 1.724622726440E+00 3.725290298462E-09 0.000000000000E+00
    6.146528808594E+03 2.014806747437E+00 0.000000000000E+00 3.000000000000E+00
    1.930470654297E+04-2.025752067566E+00-0.000000000000E+00 0.000000000000E+00
22 21  4  6 20 45  0.0-1.064809039235E-04-1.818989403546E-12 7.464000000000E+04
   -1.759685058594E+04-7.952804565430E-01-3.725290298462E-09 0.000000000000E+00
   -1.693682128906E+04-6.277551651001E-01 0.000000000000E+00-3.000000000000E+00
   -7.189847167969E+03 3.441137313843E+00-0.000000000000E+00 0.000000000000E+00
11 21  4  6 21 15  0.0 1.399777829647E-06-9.094947017729E-13 7.560000000000E+04
   -6.811726074219E+03 5.021352767944E-01 0.000000000000E+00 5.000000000000E+00
   -1.388031738281E+04-2.732972145081E+00 0.000000000000E+00 0.000000000000E+00
    2.029172509766E+04-1.702249526978E+00-1.862645149231E-09 0.000000000000E+00
21 21  4  6 21 15  0.0-1.998692750931E-04-2.728484105319E-12 7.560000000000E+04
   -9.340735839844E+03 1.381395339966E+00-0.000000000000E+00 0.000000000000E+00
   -1.827671484375E+04 1.562800407410E+00 0.000000000000E+00 4.000000000000E+00
    1.515781054688E+04 2.733692169189E+00-9.313225746155E-10 0.000000000000E+00
20 21  4  6 21 15  0.0-4.679709672928E-05-0.000000000000E+00 7.560000000000E+04
    7.224071777344E+03 2.256090164185E+00 1.862645149231E-09 0.000000000000E+00
   -7.406556152344E+03 2.265701293945E+00-0.000000000000E+00 2.000000000000E+00
    2.332226904297E+04 2.518939971924E-02-9.313225746155E-10 0.000000000000E+00
10 21  4  6 21 15  0.0-6.775185465813E-05 0.000000000000E+00 7.560000000000E+04
    2.367055175781E+03 2.627182006836E-02 0.000000000000E+00 0.000000000000E+00
   -2.467870361328E+04-8.561162948608E-01 9.313225746155E-10-7.000000000000E+00
    6.147752441406E+03-3.432742118835E+00 0.000000000000E+00 0.000000000000E+00
12 21  4  6 21 15  0.0 2.187266945839E-04 3.637978807092E-12 7.560000000000E+04
   -1.191889160156E+04 7.124481201172E-01-0.000000000000E+00 0.000000000000E+00
    5.247378906250E+03-2.914770126343E+00-9.313225746155E-10-1.000000000000E+00
    2.194964355469E+04 1.086779594421E+00-2.793967723846E-09 0.000000000000E+00
22 21  4  6 21 15  0.0-1.064855605364E-04-1.818989403546E-12 7.560000000000E+04
   -1.856734765625E+04-2.455139160156E-01-2.793967723846E-09 0.000000000000E+00
   -1.739265380859E+04 9.982299804688E-02 9.313225746155E-10-3.000000000000E+00
   -7.966767578125E+02 3.615991592407E+00-0.000000000000E+00 0.000000000000E+00
02 21  4  6 21 15  0.0 4.737712442875E-04 9.094947017729E-13 7.560000000000E+04
   -1.844276806641E+04-1.660458564758E+00-1.862645149231E-09 0.000000000000E+00
    1.189229541016E+04 6.400775909424E-01-9.313225746155E-10-4.000000000000E+00
    1.299926220703E+04-2.956967353821E+00-2.793967723846E-09 0.000000000000E+00
03 21  4  6 21 15  0.0 3.376044332981E-05 9.094947017729E-13 7.560000000000E+04
   -1.654324218750E+03-2.942813873291E+00 9.313225746155E-10 0.000000000000E+00
    1.175203027344E+04 9.260082244873E-01-9.313225746155E-10 5.000000000000E+00
    2.262018750000E+04-7.023859024048E-01-1.862645149231E-09 0.000000000000E+00
21 21  4  6 21 45  0.0-1.998739317060E-04-2.728484105319E-12 7.740000000000E+04
   -6.216491210938E+03 2.077267646790E+00 9.313225746155E-10 0.000000000000E+00
   -1.532254785156E+04 1.672494888306E+00 0.000000000000E+00 4.000000000000E+00
    1.942942626953E+04 1.981732368469E+00-9.313225746155E-10 0.000000000000E+00
11 21  4  6 21 45  0.0 1.397915184498E-06-9.094947017729E-13 7.740000000000E+04
   -6.322339843750E+03 5.970668792725E-02 0.000000000000E+00 5.000000000000E+00
   -1.841331347656E+04-2.258760452271E+00 0.000000000000E+00 0.000000000000E+00
    1.648308398438E+04-2.502149581909E+00-9.313225746155E-10 0.000000000000E+00
12 21  4  6 21 45  0.0 2.187322825193E-04 3.637978807092E-12 7.740000000000E+04
   -1.099927294922E+04 2.945270538330E-01 0.000000000000E+00 0.000000000000E+00
   -2.407421875000E+02-3.134023666382E+00-0.000000000000E+00-1.000000000000E+00
    2.303378515625E+04 1.101045608521E-01-2.793967723846E-09 0.000000000000E+00
22 21  4  6 21 45  0.0-1.064902171493E-04-1.818989403546E-12 7.740000000000E+04
   -1.836937548828E+04 4.886322021484E-01-1.862645149231E-09 0.000000000000E+00
   -1.668327343750E+04 6.521577835083E-01 9.313225746155E-10-3.000000000000E+00
    5.658449707031E+03 3.509477615356E+00-9.313225746155E-10 0.000000000000E+00
20 21  4  6 21 45  0.0-4.679802805185E-05-0.000000000000E+00 7.740000000000E+04
    1.152835400391E+04 2.482883453369E+00 2.793967723846E-09 0.000000000000E+00
   -3.699663574219E+03 1.822279930115E+00-0.000000000000E+00 2.000000000000E+00
    2.246650439453E+04-9.697399139404E-01-9.313225746155E-10 0.000000000000E+00
10 21  4  6 21 45  0.0-6.775092333555E-05 0.000000000000E+00 7.740000000000E+04
    2.208141113281E+03-1.639137268066E-01 0.000000000000E+00 0.000000000000E+00
   -2.545115966797E+04 1.040554046631E-02 9.313225746155E-10-7.000000000000E+00
   -1.883803710938E+02-3.561871528625E+00 9.313225746155E-10 0.000000000000E+00
03 21  4  6 21 45  0.0 3.376230597496E-05 9.094947017729E-13 7.740000000000E+04
   -6.604274414063E+03-2.516366958618E+00 0.000000000000E+00 0.000000000000E+00
    1.371297998047E+04 1.223015785217E+00-9.313225746155E-10 5.000000000000E+00
    2.050120996094E+04-1.637014389038E+00-2.793967723846E-09 0.000000000000E+00
04 21  4  6 21 45  0.0 8.125603199005E-05 1.818989403546E-12 7.746000000000E+04
    1.086493359375E+04-2.781222343445E+00 2.793967723846E-09 0.000000000000E+00
    6.505117675781E+03 1.199792861938E+00-9.313225746155E-10 6.000000000000E+00
    2.217497949219E+04 1.011686325073E+00-9.313225746155E-10 0.000000000000E+00
21 21  4  6 22 15  0.0-1.998785883188E-04-2.728484105319E-12 7.920000000000E+04
   -1.942188476563E+03 2.641033172607E+00 9.313225746155E-10 0.000000000000E+00
   -1.241711132813E+04 1.514726638794E+00-0.000000000000E+00 4.000000000000E+00
    2.219984277344E+04 1.076497077942E+00-9.313225746155E-10 0.000000000000E+00
11 21  4  6 22 15  0.0 1.396983861923E-06-9.094947017729E-13 7.920000000000E+04
   -6.504656738281E+03-2.301626205444E-01 0.000000000000E+00 5.000000000000E+00
   -2.187081054688E+04-1.550692558289E+00 9.313225746155E-10 0.000000000000E+00
    1.140019970703E+04-3.108860969543E+00-0.000000000000E+00 0.000000000000E+00
12 21  4  6 22 15  0.0 2.187388017774E-04 3.637978807092E-12 7.920000000000E+04
   -1.088012402344E+04-1.590909957886E-01 0.000000000000E+00 0.000000000000E+00
   -5.851488281250E+03-3.048800468445E+00-0.000000000000E+00-1.000000000000E+00
    2.234116162109E+04-8.746500015259E-01-1.862645149231E-09 0.000000000000E+00
